{
  "type": "FeatureCollection",
  "features": [
    {
      "type": "Feature",
      "properties": {
        "norad_id": 34492,
        "name": "IRIDIUM 33 DEB",
        "group": "iridium-33-debris",
        "lat": 10.437375715013628,
        "lon": 157.7321718043622,
        "alt_km": 827.7926647574204,
        "timestamp": "2025-12-03T10:52:57.840062+00:00",
        "meta_object_name": "IRIDIUM 33 DEB",
        "meta_object_id": "1997-051GH",
        "meta_epoch": "2025-12-02T11:12:49.891104",
        "meta_mean_motion": 14.2523388,
        "meta_eccentricity": 0.01904279,
        "meta_inclination": 86.4708,
        "meta_ra_of_asc_node": 338.7817,
        "meta_arg_of_pericenter": 271.515,
        "meta_mean_anomaly": 243.1192,
        "meta_ephemeris_type": 0,
        "meta_classification_type": "U",
        "meta_norad_cat_id": 34492,
        "meta_element_set_no": 999,
        "meta_rev_at_epoch": 84912,
        "meta_bstar": 0.0077482505,
        "meta_mean_motion_dot": 0.00022079,
        "meta_mean_motion_ddot": 0,
        "tle_line1": "1 34492U 97051GH  25336.46724411  .00022079  00000+0  77483-2 0  9992",
        "tle_line2": "2 34492  86.4708 338.7817 0190427 271.5150 243.1192 14.25233880849120"
      },
      "geometry": {
        "type": "Point",
        "coordinates": [
          157.7321718043622,
          10.437375715013628
        ]
      }
    },
    {
      "type": "Feature",
      "properties": {
        "norad_id": 34497,
        "name": "IRIDIUM 33 DEB",
        "group": "iridium-33-debris",
        "lat": -14.120003731545347,
        "lon": 55.42997811275726,
        "alt_km": 752.3993924045781,
        "timestamp": "2025-12-03T10:52:57.840073+00:00",
        "meta_object_name": "IRIDIUM 33 DEB",
        "meta_object_id": "1997-051GN",
        "meta_epoch": "2025-12-01T05:14:48.727392",
        "meta_mean_motion": 14.27398963,
        "meta_eccentricity": 0.0080081,
        "meta_inclination": 86.2784,
        "meta_ra_of_asc_node": 57.3223,
        "meta_arg_of_pericenter": 16.9295,
        "meta_mean_anomaly": 12.6117,
        "meta_ephemeris_type": 0,
        "meta_classification_type": "U",
        "meta_norad_cat_id": 34497,
        "meta_element_set_no": 999,
        "meta_rev_at_epoch": 86719,
        "meta_bstar": 0.00069242,
        "meta_mean_motion_dot": 1.774e-05,
        "meta_mean_motion_ddot": 0,
        "tle_line1": "1 34497U 97051GN  25335.21861953  .00001774  00000+0  69242-3 0  9996",
        "tle_line2": "2 34497  86.2784  57.3223 0080081  16.9295  12.6117 14.27398963867196"
      },
      "geometry": {
        "type": "Point",
        "coordinates": [
          55.42997811275726,
          -14.120003731545347
        ]
      }
    },
    {
      "type": "Feature",
      "properties": {
        "norad_id": 34508,
        "name": "IRIDIUM 33 DEB",
        "group": "iridium-33-debris",
        "lat": 40.855242266066334,
        "lon": -76.56920208339956,
        "alt_km": 740.4367576165278,
        "timestamp": "2025-12-03T10:52:57.840084+00:00",
        "meta_object_name": "IRIDIUM 33 DEB",
        "meta_object_id": "1997-051GZ",
        "meta_epoch": "2025-12-02T19:12:23.760000",
        "meta_mean_motion": 14.38266528,
        "meta_eccentricity": 0.0065434,
        "meta_inclination": 86.3694,
        "meta_ra_of_asc_node": 106.8555,
        "meta_arg_of_pericenter": 205.2771,
        "meta_mean_anomaly": 154.5222,
        "meta_ephemeris_type": 0,
        "meta_classification_type": "U",
        "meta_norad_cat_id": 34508,
        "meta_element_set_no": 999,
        "meta_rev_at_epoch": 87166,
        "meta_bstar": 0.0022851,
        "meta_mean_motion_dot": 7.142e-05,
        "meta_mean_motion_ddot": 0,
        "tle_line1": "1 34508U 97051GZ  25336.80027500  .00007142  00000+0  22851-2 0  9996",
        "tle_line2": "2 34508  86.3694 106.8555 0065434 205.2771 154.5222 14.38266528871668"
      },
      "geometry": {
        "type": "Point",
        "coordinates": [
          -76.56920208339956,
          40.855242266066334
        ]
      }
    },
    {
      "type": "Feature",
      "properties": {
        "norad_id": 34521,
        "name": "IRIDIUM 33 DEB",
        "group": "iridium-33-debris",
        "lat": -24.845251202592213,
        "lon": -143.68510912889653,
        "alt_km": 688.460245247431,
        "timestamp": "2025-12-03T10:52:57.840094+00:00",
        "meta_object_name": "IRIDIUM 33 DEB",
        "meta_object_id": "1997-051HN",
        "meta_epoch": "2025-12-03T03:23:03.909408",
        "meta_mean_motion": 14.63221296,
        "meta_eccentricity": 0.0001181,
        "meta_inclination": 86.3816,
        "meta_ra_of_asc_node": 34.7733,
        "meta_arg_of_pericenter": 295.577,
        "meta_mean_anomaly": 64.5319,
        "meta_ephemeris_type": 0,
        "meta_classification_type": "U",
        "meta_norad_cat_id": 34521,
        "meta_element_set_no": 999,
        "meta_rev_at_epoch": 88332,
        "meta_bstar": 0.0013023,
        "meta_mean_motion_dot": 6.728e-05,
        "meta_mean_motion_ddot": 0,
        "tle_line1": "1 34521U 97051HN  25337.14101747  .00006728  00000+0  13023-2 0  9995",
        "tle_line2": "2 34521  86.3816  34.7733 0001181 295.5770  64.5319 14.63221296883320"
      },
      "geometry": {
        "type": "Point",
        "coordinates": [
          -143.68510912889653,
          -24.845251202592213
        ]
      }
    },
    {
      "type": "Feature",
      "properties": {
        "norad_id": 34525,
        "name": "IRIDIUM 33 DEB",
        "group": "iridium-33-debris",
        "lat": -14.870367889133451,
        "lon": 49.84194384805516,
        "alt_km": 756.8308100860086,
        "timestamp": "2025-12-03T10:52:57.840104+00:00",
        "meta_object_name": "IRIDIUM 33 DEB",
        "meta_object_id": "1997-051HS",
        "meta_epoch": "2025-12-03T04:25:47.712000",
        "meta_mean_motion": 14.42865341,
        "meta_eccentricity": 0.0006441,
        "meta_inclination": 86.3736,
        "meta_ra_of_asc_node": 50.9215,
        "meta_arg_of_pericenter": 117.0433,
        "meta_mean_anomaly": 272.5386,
        "meta_ephemeris_type": 0,
        "meta_classification_type": "U",
        "meta_norad_cat_id": 34525,
        "meta_element_set_no": 999,
        "meta_rev_at_epoch": 87950,
        "meta_bstar": 0.00051439,
        "meta_mean_motion_dot": 1.736e-05,
        "meta_mean_motion_ddot": 0,
        "tle_line1": "1 34525U 97051HS  25337.18458000  .00001736  00000+0  51439-3 0  9998",
        "tle_line2": "2 34525  86.3736  50.9215 0006441 117.0433 272.5386 14.42865341879500"
      },
      "geometry": {
        "type": "Point",
        "coordinates": [
          49.84194384805516,
          -14.870367889133451
        ]
      }
    },
    {
      "type": "Feature",
      "properties": {
        "norad_id": 34529,
        "name": "IRIDIUM 33 DEB",
        "group": "iridium-33-debris",
        "lat": -43.842275769190096,
        "lon": 35.86972074114647,
        "alt_km": 763.9635288290829,
        "timestamp": "2025-12-03T10:52:57.840114+00:00",
        "meta_object_name": "IRIDIUM 33 DEB",
        "meta_object_id": "1997-051HW",
        "meta_epoch": "2025-12-03T04:25:06.114720",
        "meta_mean_motion": 14.40603135,
        "meta_eccentricity": 0.0003664,
        "meta_inclination": 86.3649,
        "meta_ra_of_asc_node": 39.4847,
        "meta_arg_of_pericenter": 211.6368,
        "meta_mean_anomaly": 148.4611,
        "meta_ephemeris_type": 0,
        "meta_classification_type": "U",
        "meta_norad_cat_id": 34529,
        "meta_element_set_no": 999,
        "meta_rev_at_epoch": 88004,
        "meta_bstar": 0.00016704,
        "meta_mean_motion_dot": 5.52e-06,
        "meta_mean_motion_ddot": 0,
        "tle_line1": "1 34529U 97051HW  25337.18409855  .00000552  00000+0  16704-3 0  9997",
        "tle_line2": "2 34529  86.3649  39.4847 0003664 211.6368 148.4611 14.40603135880044"
      },
      "geometry": {
        "type": "Point",
        "coordinates": [
          35.86972074114647,
          -43.842275769190096
        ]
      }
    },
    {
      "type": "Feature",
      "properties": {
        "norad_id": 34538,
        "name": "IRIDIUM 33 DEB",
        "group": "iridium-33-debris",
        "lat": 85.17829604146812,
        "lon": 60.12547907274541,
        "alt_km": 741.5610926881773,
        "timestamp": "2025-12-03T10:52:57.840125+00:00",
        "meta_object_name": "IRIDIUM 33 DEB",
        "meta_object_id": "1997-051JF",
        "meta_epoch": "2025-12-03T02:26:55.665024",
        "meta_mean_motion": 14.42554654,
        "meta_eccentricity": 0.0034017,
        "meta_inclination": 86.2782,
        "meta_ra_of_asc_node": 9.7771,
        "meta_arg_of_pericenter": 0.3731,
        "meta_mean_anomaly": 62.3752,
        "meta_ephemeris_type": 0,
        "meta_classification_type": "U",
        "meta_norad_cat_id": 34538,
        "meta_element_set_no": 999,
        "meta_rev_at_epoch": 87617,
        "meta_bstar": 0.0011695,
        "meta_mean_motion_dot": 3.925e-05,
        "meta_mean_motion_ddot": 0,
        "tle_line1": "1 34538U 97051JF  25337.10203316  .00003925  00000+0  11695-2 0  9993",
        "tle_line2": "2 34538  86.2782   9.7771 0034017   0.3731  62.3752 14.42554654876172"
      },
      "geometry": {
        "type": "Point",
        "coordinates": [
          60.12547907274541,
          85.17829604146812
        ]
      }
    }
  ]
}